LEMUR-2-PETERG          
1 42841U 17042S   26068.48235713  .00023240  00000+0  81076-3 0  9993
2 42841  97.3980 253.6596 0003700 341.6938  18.4169 15.29611459473171
STARLINK-30089          
1 56296U 23056L   26068.34242496  .00109192  00000+0  39504-2 0  9994
2 56296  42.9999 171.0972 0001478 246.7575 113.3121 15.27318984160440
